STARLINK-1414
1 15690C 20035AK  21326.12847012  .00005887  00000-0  40311-3 0  3267
2 15690  53.0014 258.1704 0001899  67.2170  10.6949 15.05583087    18
